name,address,latitude,longitude
Unknown,Unknown Address,53.1747025,-6.2917691
Unknown,Unknown Address,53.3912854,-6.5664938
Unknown,Unknown Address,53.3884247,-6.566676
Unknown,Unknown Address,53.3487574,-6.2420851
IFSC Car Park,Unknown Address,53.3485887,-6.2461854
Unknown,Unknown Address,55.2301599,-6.3925511
Irish Life Car Park,Unknown Address,53.3493115,-6.2558171
Unknown,Unknown Address,54.5779621,-5.9149027
Harbour Car Park,Harbour Road,53.2950371,-6.1326006
Unknown,Unknown Address,53.3969397,-6.1296965
Beach,Unknown Address,53.3533786,-6.1651686
Unknown,Unknown Address,53.3442546,-6.2390739
Unknown,Unknown Address,53.2854478,-6.247021
Unknown,Unknown Address,53.2857446,-6.2465714
Unknown,Unknown Address,53.2850886,-6.246382
Unknown,Unknown Address,53.2872923,-6.2457151
Unknown,Unknown Address,53.2874879,-6.2445825
Unknown,Unknown Address,53.2871724,-6.2446078
Unknown,Unknown Address,53.2878512,-6.24577
Glor Car Park,Unknown Address,52.8450422,-8.9768401
Unknown,Unknown Address,53.2947143,-6.2555339
Unknown,Unknown Address,53.2839177,-6.259105
Unknown,Unknown Address,53.2883788,-6.2678018
Unknown,Unknown Address,52.667477,-8.5703754
Cornmarket Square,Unknown Address,52.663238,-8.6227267
Unknown,Unknown Address,53.2787716,-6.1091757
Unknown,Unknown Address,53.3009473,-6.2824997
Unknown,Unknown Address,53.291797,-6.2794463
Unknown,Unknown Address,53.2979357,-6.2797711
Unknown,Unknown Address,53.2931678,-6.279849
Unknown,Unknown Address,53.2926052,-6.2774683
North Beach car park,Unknown Address,53.523921,-6.084418
Unknown,Unknown Address,53.2051327,-6.0998009
Unknown,Unknown Address,53.2809307,-6.2736453
Unknown,Unknown Address,53.28435,-6.2587
Unknown,Unknown Address,53.3904416,-6.1088757
Unknown,Unknown Address,53.2935156,-6.2685846
Unknown,Unknown Address,53.2991366,-6.2868796
Unknown,Unknown Address,53.3116617,-6.2737612
Unknown,Unknown Address,52.6393335,-8.6445539
Unknown,Unknown Address,53.2868671,-6.2368408
Red Car Park,Sandyford Road,53.2869021,-6.2400074
Unknown,Unknown Address,53.4508617,-6.9545035
Unknown,Unknown Address,53.4650768,-6.1919083
Unknown,Unknown Address,52.3546869,-7.6984612
Unknown,Unknown Address,53.2694901,-6.151881
Unknown,Unknown Address,52.7101819,-8.8790558
Castlelough Woods,Unknown Address,52.8874205,-8.3947886
Unknown,Unknown Address,52.8795883,-8.3942307
Arthur's Quay Car Park,Unknown Address,52.6655493,-8.6254035
Long Term 3,Unknown Address,52.6929451,-8.9261514
Long Term 2,Unknown Address,52.6928931,-8.9241945
Unknown,Unknown Address,53.3271913,-8.2187339
Unknown,Unknown Address,53.2279285,-8.6291333
Unknown,Unknown Address,52.6392008,-9.5508324
Unknown,Unknown Address,53.2899538,-6.3149526
Unknown,Unknown Address,53.2896616,-6.3151674
Unknown,Unknown Address,53.5106993,-6.4003909
Unknown,Unknown Address,53.4756931,-7.3675755
Unknown,Unknown Address,52.8041523,-6.176344
Duke Street,Unknown Address,53.7158113,-6.3531287
Unknown,Unknown Address,53.7166134,-6.3568759
Unknown,Unknown Address,52.4012985,-8.3225108
Unknown,Unknown Address,52.4297358,-8.1686614
Unknown,Unknown Address,53.3459441,-6.3094794
Steamboat Quay Car Park,Dock Road,52.6599803,-8.637053
Unknown,Unknown Address,53.4715834,-6.2318009
Unknown,Unknown Address,53.3884001,-6.2466186
Unknown,Unknown Address,53.5136209,-7.3399136
Unknown,Unknown Address,53.5284652,-7.3353229
Ballycasey Craft Center,Unknown Address,52.7107197,-8.8560433
MacDonagh Junction,Unknown Address,52.6553847,-7.2435989
Scotch Hall Car Park,Unknown Address,53.7136096,-6.3452711
Unknown,Unknown Address,55.0551652,-6.0487942
Unknown,Unknown Address,53.2314641,-6.1236058
Unknown,Unknown Address,53.2759472,-9.0722872
Unknown,Unknown Address,55.2143083,-6.143912
Unknown,Unknown Address,55.2055611,-6.2222658
Unknown,Unknown Address,55.2026125,-6.2291809
Unknown,Unknown Address,55.2004091,-6.2491757
Unknown,Unknown Address,55.1828112,-6.7206437
Unknown,Unknown Address,55.1597629,-6.8059199
Unknown,Unknown Address,55.1343245,-6.843037
Unknown,Unknown Address,53.1906422,-6.2436526
Unknown,Unknown Address,53.4658729,-6.2140705
Unknown,Unknown Address,53.4666853,-6.2132581
Unknown,Unknown Address,53.4652248,-6.1958695
Unknown,Unknown Address,53.4610464,-6.2115874
Unknown,Unknown Address,52.9105593,-8.5382649
Unknown,Unknown Address,52.9090874,-8.5452177
Unknown,Unknown Address,53.167051,-6.5430844
Unknown,Unknown Address,52.9111493,-8.5313295
Meridian Point Shopping Centre,Unknown Address,53.1441918,-6.0640919
Unknown,Unknown Address,52.4866985,-9.6764791
Unknown,Unknown Address,53.3489233,-6.5110101
Unknown,Unknown Address,55.1193779,-6.9188873
Unknown,Unknown Address,53.3920598,-6.5935017
Unknown,Unknown Address,53.3916575,-6.5920743
Unknown,Unknown Address,53.3935755,-6.593406
Unknown,Unknown Address,53.3934222,-6.593194
Unknown,Unknown Address,53.3933683,-6.593563
Unknown,Unknown Address,53.3934066,-6.594035
Unknown,Unknown Address,53.3858973,-6.5961779
Pavilion Car Park,Queen's Road,53.2936686,-6.1326479
Unknown,Unknown Address,53.3824786,-6.5862904
Unknown,Unknown Address,53.3841241,-6.58706
Unknown,Unknown Address,53.3840049,-6.5867246
Unknown,Unknown Address,53.3843625,-6.5869008
Unknown,Unknown Address,53.3840938,-6.5860775
Unknown,Unknown Address,55.0428892,-7.4767092
Rossa Place,Unknown Address,52.8643426,-8.1960758
Unknown,Unknown Address,52.6427682,-6.2252115
Unknown,Unknown Address,55.0778302,-7.4533291
Unknown,Unknown Address,55.1381212,-7.4614361
Unknown,Unknown Address,55.1416889,-7.4554266
Unknown,Unknown Address,55.1412628,-7.4593042
Unknown,Unknown Address,52.1779611,-8.3586487
Unknown,Unknown Address,52.994243,-6.9830949
Unknown,Unknown Address,52.8922304,-6.3891557
Oughaval Wood Car Park,Unknown Address,53.0043116,-7.1275726
Unknown,Unknown Address,53.7219423,-6.5253381
Rossmore Forest Park,Unknown Address,54.228239,-6.9965727
Ballycuggaran,Unknown Address,52.8341636,-8.4661309
Unknown,Unknown Address,53.1199335,-9.6673623
Bridgewater Shopping Centre Car Park,Unknown Address,52.7990026,-6.145651
Ballina G.A.A.,Unknown Address,52.8155086,-8.4383499
Unknown,Unknown Address,52.7263656,-8.5056922
Unknown,Unknown Address,52.1119139,-9.9029361
O'Sullivans Place Car Park,Unknown Address,52.0619303,-9.5075174
Glenaniff Waterfalls,Unknown Address,54.3805056,-8.133449
Viking Hotel,Unknown Address,52.2418697,-7.1641278
Viking Hotel,Unknown Address,52.2426851,-7.1648673
Unknown,Unknown Address,53.3818243,-6.5951766
Unknown,Unknown Address,53.0978041,-6.9150675
Christchurch Car Park,Unknown Address,53.3423595,-6.2703342
Unknown,Unknown Address,53.0093573,-7.3173041
Unknown,Unknown Address,53.030585,-7.296609
Unknown,Unknown Address,52.275305,-9.7793038
Banna Car Park 1,Unknown Address,52.3378763,-9.8315781
Drury Street Car Park,Drury Street,53.342819,-6.263172
Unknown,Unknown Address,53.5120362,-10.1367987
Unknown,Unknown Address,52.2116047,-10.0394752
Unknown,Unknown Address,52.208449,-10.0489595
Unknown,Unknown Address,52.204178,-10.0490968
Unknown,Unknown Address,52.2066607,-10.0366857
Unknown,Unknown Address,52.2080546,-10.0370719
Unknown,Unknown Address,52.2145761,-10.0230815
Unknown,Unknown Address,52.2117362,-10.0198629
Unknown,Unknown Address,52.8156381,-8.9671824
Charleville Town Centre,Unknown Address,52.3541322,-8.6794995
Unknown,Unknown Address,53.1477484,-6.0699013
Unknown,Unknown Address,52.6016334,-6.5485907
Spanish Point Beach,Unknown Address,52.8431758,-9.433018
Unknown,Unknown Address,52.8672265,-9.4266606
Golf Club,Unknown Address,52.839729,-9.4309376
Unknown,Unknown Address,52.2730052,-8.0153897
Unknown,Unknown Address,52.7953178,-6.6616202
Unknown,Unknown Address,53.2828138,-6.3774686
Unknown,Unknown Address,55.4247963,-5.6031954
Irish Seed Savers Association,Unknown Address,52.9176435,-8.5657442
Unknown,Unknown Address,52.8061617,-8.445049
Unknown,Unknown Address,54.5044571,-8.1899005
Unknown,Unknown Address,54.5044073,-8.1903211
Providers Hardware,Unknown Address,53.7290874,-7.8041326
Unknown,Unknown Address,52.4690714,-7.0018981
Unknown,Unknown Address,53.2049343,-6.8604604
Unknown,Unknown Address,53.2803637,-6.119025
Unknown,Unknown Address,53.2810724,-6.1140395
Unknown,Unknown Address,53.2747977,-6.1389175
Unknown,Unknown Address,53.2767051,-6.1408856
Unknown,Unknown Address,53.2814474,-6.1076997
Unknown,Unknown Address,52.8061588,-8.4352348
Unknown,Unknown Address,52.9300096,-8.4299822
Unknown,Unknown Address,52.9301894,-8.430384
Unknown,Unknown Address,52.9325191,-8.455956
Unknown,Unknown Address,52.9287009,-8.4533805
Unknown,Unknown Address,52.9205458,-8.453472
Unknown,Unknown Address,52.6296671,-8.6433747
Unknown,Unknown Address,52.6302245,-8.6431773
Unknown,Unknown Address,53.2261651,-9.5006173
Unknown,Unknown Address,53.2281786,-9.4903554
Underground Visitor Car Park,Unknown Address,52.6753845,-8.573182
Unknown,Unknown Address,52.6908231,-8.4002253
Unknown,Unknown Address,52.9325796,-8.4392089
Moore Abbey Wood Car Park,Unknown Address,53.1303182,-7.0488958
Unknown,Unknown Address,52.4661577,-7.9058274
Coonagh Airfield,Unknown Address,52.6657762,-8.6848588
Unknown,Unknown Address,52.5981391,-8.7135376
Unknown,Unknown Address,52.3176074,-7.1421902
Unknown,Unknown Address,54.6603268,-5.7119221
Unknown,Unknown Address,54.6589963,-5.7036394
Unknown,Unknown Address,54.6596665,-5.702927
Unknown,Unknown Address,53.0708281,-7.5428347
Unknown,Unknown Address,53.0828575,-7.555094
Unknown,Unknown Address,52.8901634,-8.4807925
Unknown,Unknown Address,52.8937141,-8.5071625
Unknown,Unknown Address,53.0300848,-7.2949791
Visitor parking,Unknown Address,53.3766596,-6.2770411
Unknown,Unknown Address,53.6094574,-6.1825251
Apartment Car Park,Unknown Address,53.3260722,-6.2658075
Unknown,Unknown Address,53.3295054,-6.2610113
Unknown,Unknown Address,53.2678182,-8.9312587
Unknown,Unknown Address,52.2364973,-7.2068811
Unknown,Unknown Address,52.9438446,-6.710445
Unknown,Unknown Address,52.0515666,-7.6626912
Unknown,Unknown Address,52.04569,-7.6072016
Showgrounds Shopping Centre rooftop car-park,Unknown Address,52.3546057,-7.6915041
Bloomfield,Library Road,53.2933181,-6.1398145
Unknown,Unknown Address,53.4026333,-6.1572153
Park & Ride Car Park,Unknown Address,53.4026015,-6.1507559
Unknown,Unknown Address,53.421,-6.1542839
Unknown,Unknown Address,53.4201268,-6.1639259
Unknown,Unknown Address,53.3873887,-6.1015499
Unknown,Unknown Address,53.3878238,-6.1008204
Unknown,Unknown Address,53.395453,-6.1642592
Unknown,Unknown Address,53.3200923,-6.2910748
Unknown,Unknown Address,55.0318244,-8.1478226
Unknown,Unknown Address,53.0310595,-7.2996712
Unknown,Unknown Address,53.0385208,-7.2951365
Unknown,Unknown Address,52.9269645,-8.4208398
Unknown,Unknown Address,53.2452321,-6.6655065
Unknown,Unknown Address,53.3971337,-6.3026935
Unknown,Unknown Address,52.9331729,-8.3745965
Unknown,Unknown Address,52.9458248,-8.3736423
Unknown,Unknown Address,53.6832585,-6.6095396
Unknown,Unknown Address,53.5096759,-7.3854946
Unknown,Unknown Address,54.8413573,-8.4320494
Unknown,Unknown Address,53.037905,-6.797532
Unknown,Unknown Address,53.2833965,-6.1962122
castle,Unknown Address,55.237398,-6.4484791
Unknown,Unknown Address,53.4066343,-6.2037587
Dooney Rock,Unknown Address,54.2384973,-8.4281663
Quayside,Unknown Address,54.2734902,-8.4783651
Unknown,Unknown Address,53.0374004,-6.799605
Unknown,Unknown Address,52.8349074,-6.9286727
Unknown,Unknown Address,53.2883869,-6.1656462
Unknown,Unknown Address,53.5388345,-10.1445977
Unknown,Unknown Address,53.5447662,-10.1454053
Unknown,Unknown Address,53.3907126,-6.2986003
Unknown,Unknown Address,53.292248,-6.3557995
Unknown,Unknown Address,53.7143807,-6.5353632
Unknown,Unknown Address,53.3090907,-6.3093935
Unknown,Unknown Address,53.2869576,-6.3319604
Unknown,Unknown Address,54.264718,-8.4459275
Unknown,Unknown Address,54.1149805,-9.1541399
Unknown,Unknown Address,53.5156634,-8.8546003
Unknown,Unknown Address,53.2187914,-6.6600244
Unknown,Unknown Address,53.4533006,-6.1605285
Unknown,Unknown Address,53.4537669,-6.1615906
Unknown,Unknown Address,53.4526681,-6.1591767
Unknown,Unknown Address,53.2172263,-6.6665609
Unknown,Unknown Address,53.3267701,-6.3177022
Fitzpatrick's Car Park,Unknown Address,52.8541571,-8.9701442
Unknown,Unknown Address,53.276719,-6.1314742
Unknown,Unknown Address,52.8574677,-8.9480476
Unknown,Unknown Address,52.5360467,-7.2473227
Unknown,Unknown Address,52.3908228,-7.1721165
Unknown,Unknown Address,53.2985857,-6.2368093
Unknown,Unknown Address,54.494567,-5.537525
Unknown,Unknown Address,52.8405382,-8.2792394
Motorway lay-by,Unknown Address,52.7671046,-8.3889699
Unknown,Unknown Address,54.1222839,-6.3887016
Unknown,Unknown Address,52.536232,-7.2466984
Unknown,Unknown Address,53.2411468,-6.8551884
Unknown,Unknown Address,53.104183,-9.1691743
Unknown,Unknown Address,53.0410474,-9.3385496
Unknown,Unknown Address,53.140484,-9.276175
Unknown,Unknown Address,52.9397713,-9.2985919
The Burren,Unknown Address,53.0692769,-9.3583236
Unknown,Unknown Address,53.2811737,-6.1216908
Unknown,Unknown Address,54.4481067,-6.1075958
A One Tyres,Unknown Address,54.3980038,-6.174828
Visitors Parking,Unknown Address,53.2890981,-7.5206094
Visitors Parking,Unknown Address,53.2890853,-7.5222938
Mill Island,Unknown Address,52.1393611,-8.2723022
Drumkeeragh Forest,Unknown Address,54.34577,-5.9545808
Unknown,Unknown Address,53.0895755,-7.9093313
Unknown,Unknown Address,53.2804076,-7.4914903
Unknown,Unknown Address,54.3239476,-6.2961735
Unknown,Unknown Address,52.9465959,-7.7965461
Public Parking for Dublin Gliding Club,Unknown Address,53.1737068,-6.6328213
Johnstown Garden Centre car park,Unknown Address,53.2379469,-6.6236702
Dun Laoghaire Shopping Centre Parking,Marine Road,53.292623,-6.1343182
Unknown,Unknown Address,53.4048376,-6.3036095
Unknown,Unknown Address,54.5112456,-6.3099403
Unknown,Unknown Address,55.1193788,-6.6817704
Unknown,Unknown Address,55.1192115,-6.6824168
Yellow Water,Unknown Address,54.1351549,-6.1514317
Silent Valley Mountain Park,Unknown Address,54.1217377,-6.0031178
Alcatel-Lucent Parking,Unknown Address,53.4062889,-6.369129
Alcatel-Lucent Parking,Unknown Address,53.4058539,-6.3690968
Alcatel-Lucent Parking,Unknown Address,53.4065128,-6.3703413
Unknown,Unknown Address,52.2048306,-10.0489251
Unknown,Unknown Address,53.2934135,-6.6873268
Unknown,Unknown Address,53.460876,-6.2450684
Unknown,Unknown Address,53.1266843,-7.6600239
Unknown,Unknown Address,52.8587241,-9.4013976
Unknown,Unknown Address,54.0151096,-7.5291358
Unknown,Unknown Address,53.8321902,-7.9194789
Unknown,Unknown Address,53.8323298,-7.9180165
Unknown,Unknown Address,54.9294317,-8.442668
Unknown,Unknown Address,55.1579217,-7.8640544
Unknown,Unknown Address,55.1221065,-7.7028428
Unknown,Unknown Address,55.0371113,-7.6479017
Unknown,Unknown Address,55.2948288,-7.2592913
Parkside,Unknown Address,53.0262517,-7.3005706
Lay-by,Unknown Address,54.4181804,-5.7861852
Unknown,Unknown Address,54.8733997,-8.3819623
Ipsen Employee Parking,Unknown Address,53.406861,-6.3677989
Ipsen Visitor Parking,Unknown Address,53.4066577,-6.3677395
Ipsen Contractor Parking,Unknown Address,53.406421,-6.3679176
Unknown,Unknown Address,53.1787967,-6.6356864
Costa Coffee parking,Unknown Address,52.8325599,-6.9259651
Unknown,Unknown Address,55.2240835,-7.0140853
Unknown,Unknown Address,55.0210714,-7.3000873
Unknown,Unknown Address,54.35173,-6.2712252
Unknown,Unknown Address,54.7987319,-5.833354
Unknown,Unknown Address,54.7999817,-5.8322544
Unknown,Unknown Address,54.3614139,-6.2811962
Unknown,Unknown Address,54.3779553,-7.6520362
Unknown,Unknown Address,54.3834374,-7.654282
Unknown,Unknown Address,53.3473409,-6.3463807
McDonalds Car Park,Unknown Address,53.1741656,-6.8069156
Unknown,Unknown Address,52.5619639,-8.7812765
Cahermurphy Forest Car Park,Unknown Address,53.0045373,-8.6564894
Unknown,Unknown Address,52.2392992,-10.205609
Gorteen Bay Beach,Unknown Address,53.3810001,-9.9540416
Unknown,Unknown Address,53.5408047,-9.6167817
Unknown,Unknown Address,54.3205699,-6.8908495
Unknown,Unknown Address,54.3184058,-6.8927915
Unknown,Unknown Address,54.2241592,-6.9804855
Unknown,Unknown Address,54.2475794,-6.9690325
Rosses Point,Unknown Address,54.3087912,-8.5707657
Unknown,Unknown Address,53.14575,-7.5486329
Clonmel Street,Unknown Address,53.3360557,-6.2626846
Alcatel-Lucent Parking,Unknown Address,53.4044834,-6.3709516
Unknown,Unknown Address,53.3238389,-6.2826403
Unknown,Unknown Address,53.3242684,-6.2814251
Unknown,Unknown Address,52.9017582,-8.3823149
Clayton Whites Hotel Underground Car Park,Unknown Address,52.3404849,-6.4641975
Unknown,Unknown Address,53.4554143,-6.1666637
Unknown,Unknown Address,53.4548608,-6.164647
Unknown,Unknown Address,53.4336828,-6.1244618
Unknown,Unknown Address,53.9649463,-6.3652713
Rockview Walkways,Unknown Address,52.9828014,-7.2813726
Oak Park Forest Park,Unknown Address,52.8656374,-6.8995762
Unknown,Unknown Address,54.9504652,-8.3502463
Unknown,Unknown Address,54.3103686,-6.55566
Unknown,Unknown Address,53.673031,-6.6810536
Unknown,Unknown Address,53.2875372,-6.7670856
Unknown,Unknown Address,54.7469185,-8.7004226
Unknown,Unknown Address,52.2628686,-10.1582639
Unknown,Unknown Address,53.2357769,-6.6457507
Unknown,Unknown Address,53.2560477,-6.8529876
Killavullen car park,Unknown Address,52.1186351,-8.5275042
Slish Wood,Unknown Address,54.2308281,-8.4013543
Unknown,Unknown Address,52.628656,-8.6647542
Unknown,Unknown Address,53.2842514,-9.049956
Unknown,Unknown Address,54.4831774,-6.8647244
Unknown,Unknown Address,54.4778545,-6.9571892
Unknown,Unknown Address,54.4654267,-6.9904344
Unknown,Unknown Address,54.4637624,-6.9926523
Unknown,Unknown Address,54.4779842,-6.9507004
Unknown,Unknown Address,54.4821503,-6.929868
Unknown,Unknown Address,54.4870371,-6.8870504
Unknown,Unknown Address,54.4829343,-6.8566848
Unknown,Unknown Address,52.5233769,-8.9383409
Unknown,Unknown Address,53.013994,-8.8584671
Unknown,Unknown Address,52.9876265,-8.8826622
SuperValu / HSQ parking,Unknown Address,53.344883,-6.2991521
Unknown,Unknown Address,53.329405,-8.2207146
Unknown,Unknown Address,53.3313075,-8.2215217
Unknown,Unknown Address,53.1856461,-6.8116129
Unknown,Unknown Address,53.5139333,-7.3442491
Unknown,Unknown Address,53.5221643,-9.4434879
Unknown,Unknown Address,53.5273686,-9.3993847
Unknown,Unknown Address,53.5427484,-9.3905564
Unknown,Unknown Address,53.5421847,-9.3087855
Unknown,Unknown Address,53.5249761,-9.3076687
Unknown,Unknown Address,53.5079105,-9.4594336
Banagher Glen,Unknown Address,54.889099,-6.955904
Unknown,Unknown Address,53.5112561,-9.454497
Unknown,Unknown Address,53.591823,-7.9787233
Ski club car park,Unknown Address,53.2236089,-6.1826161
Unknown,Unknown Address,53.5689263,-8.3249234
Unknown,Unknown Address,53.515959,-9.4046309
Unknown,Unknown Address,53.1829932,-6.7942694
Lacca,Unknown Address,53.0330734,-7.5660132
Unknown,Unknown Address,53.4912304,-9.0414213
Unknown,Unknown Address,53.4906889,-8.970602
The Village,Unknown Address,53.2523161,-6.2136891
Unknown,Unknown Address,53.1734903,-6.8970675
Unknown,Unknown Address,53.2023391,-6.8535251
Unknown,Unknown Address,53.2101366,-8.8974051
Ballyhouras MTB Car Park,Unknown Address,52.3185425,-8.5062241
Unknown,Unknown Address,53.2659365,-6.1334893
Unknown,Unknown Address,53.2679459,-6.127433
Unknown,Unknown Address,53.2615399,-6.1198697
Joels Carpark,Unknown Address,53.3153358,-6.3841794
Louis Fitzgerald Hotel Carpark,Unknown Address,53.3153572,-6.3840241
Unknown,Unknown Address,53.5663021,-9.4127715
Unknown,Unknown Address,53.5663598,-9.413639
Burger King Parking,Unknown Address,52.6626139,-8.5961242
Unknown,Unknown Address,53.0440746,-8.3982637
Unknown,Unknown Address,53.3378876,-6.4634873
Aghadoe Carpark,Unknown Address,52.0770202,-9.5570431
Unknown,Unknown Address,53.3084618,-6.3142095
Unknown,Unknown Address,53.2452409,-8.6468539
Unknown,Unknown Address,53.3455489,-6.2401034
The Waterfront,Hanover Quay,53.3442216,-6.2342011
Unknown,Unknown Address,52.6396981,-7.8693818
Unknown,Unknown Address,52.6794,-7.2377036
Unknown,Unknown Address,52.6751398,-7.2386203
Unknown,Unknown Address,53.7353774,-9.8931771
Unknown,Unknown Address,53.4026566,-6.3113026
Unknown,Unknown Address,55.0846119,-6.0556622
Unknown,Unknown Address,54.0190026,-7.9654287
Moat of Ardscull Parking,Unknown Address,53.0242839,-6.9149551
Long Walk Parking Area,Unknown Address,54.0035467,-6.4034659
Unknown,Unknown Address,54.0042434,-6.4036804
Magho,Unknown Address,54.4725734,-7.9061217
Oldbawn Road Car Park,Unknown Address,53.2841776,-6.3597608
Unknown,Unknown Address,52.8545229,-6.3313736
Unknown,Unknown Address,53.0165511,-9.3752449
Unknown,Unknown Address,53.3237072,-6.3125646
Unknown,Unknown Address,52.4593736,-7.5069463
Mullaghreelan Wood Car Park,Unknown Address,52.9337557,-6.8778528
Unknown,Unknown Address,53.7555651,-6.2658828
Unknown,Unknown Address,53.352177,-6.3394633
Unknown,Unknown Address,53.3524225,-6.3366368
Unknown,Unknown Address,52.8006133,-6.4627814
Unknown,Unknown Address,53.9846918,-8.2317904
Unknown,Unknown Address,53.5540216,-9.3701625
Unknown,Unknown Address,53.8719791,-7.9572922
Unknown,Unknown Address,54.2742065,-8.4775681
Unknown,Unknown Address,52.2318232,-9.9270213
Unknown,Unknown Address,52.9895467,-6.0466127
Unknown,Unknown Address,53.3280271,-6.2317745
Stradbally Playground Car Park,Unknown Address,53.0116998,-7.1421532
Unknown,Unknown Address,55.0778634,-6.8160102
Unknown,Unknown Address,55.0779328,-6.814617
Castlemill Shopping Centre,Unknown Address,53.6133197,-6.2061436
Unknown,Unknown Address,52.398368,-7.3794048
Jervis,Unknown Address,53.3479444,-6.2662089
Unknown,Unknown Address,53.3868282,-9.2314418
BOI parking,Unknown Address,53.3807619,-6.1722142
Unknown,Unknown Address,53.6526144,-9.3756746
Unknown,Unknown Address,54.0383977,-6.1871562
Cloonbony Cemetery,Unknown Address,53.6747129,-7.9739177
Hard Surface Parking at entrace to Mote Park walkways,Unknown Address,53.6010351,-8.14349
Unknown,Unknown Address,53.7413895,-7.8043149
Unknown,Unknown Address,54.0894736,-8.5149126
Aspencourt,Unknown Address,53.2694021,-6.1670606
Unknown,Unknown Address,52.5219512,-6.9648345
Ballyleague Hall,Unknown Address,53.6760199,-8.0054211
Unknown,Unknown Address,53.7535089,-6.879198
Unknown,Unknown Address,55.0775079,-6.8338679
Unknown,Unknown Address,52.6011018,-6.9526054
Unknown,Unknown Address,54.7720094,-6.5767065
Unknown,Unknown Address,53.9640147,-6.3650936
Unknown,Unknown Address,54.9235708,-6.670359
Fairhill Parking,Unknown Address,54.843776,-6.675325
Unknown,Unknown Address,54.8074423,-6.2112916
Unknown,Unknown Address,54.6053768,-6.2035831
Portnahapple Car Park,Unknown Address,55.1799509,-6.7235424
Unknown,Unknown Address,53.294523,-7.2927117
Unknown,Unknown Address,53.7193959,-8.9979267
Unknown,Unknown Address,55.1803174,-6.7126937
Athlone Town Centre,Unknown Address,53.4252613,-7.93718
Unknown,Unknown Address,52.9836515,-6.0414455
Unknown,Unknown Address,55.016978,-5.976303
Unknown,Unknown Address,53.3510857,-7.5920141
Unknown,Unknown Address,53.6676617,-8.7389296
Combaun Woods Car Park,Unknown Address,52.3188341,-8.2650946
Sorrel Hill Car Park,Unknown Address,53.1381994,-6.4409977
Boden's Well,Unknown Address,53.1357152,-6.4883187
Unknown,Unknown Address,53.107104,-6.4915518
Unknown,Unknown Address,52.1750983,-7.8302455
Unknown,Unknown Address,55.1664388,-6.7052696
Unknown,Unknown Address,55.1036157,-6.5988136
Unknown,Unknown Address,55.1016846,-6.5945479
Free car park,Unknown Address,54.4807472,-6.228228
Kill O'The Grange Church Car Park,Unknown Address,53.2783169,-6.1620675
Unknown,Unknown Address,53.0600931,-6.2307696
Unknown,Unknown Address,54.5090315,-6.0748028
Mullaghmeen Forest,Unknown Address,53.7490231,-7.2737712
Unknown,Unknown Address,53.363809,-6.2359608
Unknown,Unknown Address,55.1379104,-6.7378228
Point Square Car Park,Unknown Address,53.3497022,-6.2280749
Unknown,Unknown Address,52.6724549,-7.2599269
Unknown,Unknown Address,54.3286567,-8.5011677
Lough Easkey,Unknown Address,54.1596541,-8.8442598
Unknown,Unknown Address,54.5773568,-5.8868526
Unknown,Unknown Address,54.5777699,-5.8822023
Unknown,Unknown Address,54.5779157,-5.8802884
Unknown,Unknown Address,54.5771691,-5.8890613
Newgrange Car Park,Unknown Address,53.6517358,-6.6825162
Unknown,Unknown Address,53.2244638,-6.1260426
Unknown,Unknown Address,53.2577172,-9.0868734
Unknown,Unknown Address,53.2573248,-9.0918072
Unknown,Unknown Address,53.2577956,-9.0860932
Unknown,Unknown Address,53.2582101,-9.0834837
Unknown,Unknown Address,53.2865352,-9.0355684
Unknown,Unknown Address,53.0686742,-6.5319219
Union Wood,Unknown Address,54.2134212,-8.4711756
Unknown,Unknown Address,53.2601375,-9.078292
Unknown,Unknown Address,53.2582187,-9.0813941
Unknown,Unknown Address,53.2601356,-9.0757119
Unknown,Unknown Address,53.260746,-9.0753059
Unknown,Unknown Address,53.2614288,-9.0744419
Unknown,Unknown Address,53.7816071,-7.3897917
Car Park,Unknown Address,53.2322524,-7.7276262
County Council Parking,Unknown Address,53.2691552,-7.4991489
Unknown,Unknown Address,53.2739402,-7.4870658
Unknown,Unknown Address,53.2693367,-7.4956113
Unknown,Unknown Address,53.2731767,-7.4897212
Unknown,Unknown Address,53.3304778,-7.5117066
Unknown,Unknown Address,53.2740406,-9.0426846
Unknown,Unknown Address,54.2956557,-9.3767798
Tesco,Unknown Address,53.3602787,-6.2998629
Unknown,Unknown Address,53.4689514,-7.1121747
Unknown,Unknown Address,54.7031435,-8.7676871
Unknown,Unknown Address,53.2777644,-6.2654799
Tesco parking,Unknown Address,53.6971908,-6.2489003
Unknown,Unknown Address,52.3025022,-8.4952757
Unknown,Unknown Address,52.482937,-7.0623926
Unknown,Unknown Address,52.4041461,-6.8791338
Burtown House and Gardens car park,Unknown Address,52.9981443,-6.8703578
Unknown,Unknown Address,53.6070135,-9.9891987
Unknown,Unknown Address,52.678797,-8.6594671
Unknown,Unknown Address,54.3817912,-5.5470037
Templetown Beach,Unknown Address,53.9819657,-6.1474108
Shelling Hill Beach,Unknown Address,53.9789247,-6.1581611
Rampart Road Car Park,Unknown Address,54.0009292,-6.4033529
Unknown,Unknown Address,53.0603526,-6.2769994
Knowth,Unknown Address,53.7023201,-6.4902479
Unknown,Unknown Address,53.298308,-6.287302
Unknown,Unknown Address,53.2988653,-6.2870027
Unknown,Unknown Address,53.3012134,-9.077181
Unknown,Unknown Address,52.1069144,-9.7894168
Devils Chimney Waterfall Car Park,Unknown Address,54.3404429,-8.3931885
Unknown,Unknown Address,53.2730751,-9.3316159
Unknown,Unknown Address,53.2604831,-9.2447052
Unknown,Unknown Address,53.240764,-9.3449691
Unknown,Unknown Address,54.9488616,-8.3585784
Unknown,Unknown Address,53.3963744,-8.0289781
Unknown,Unknown Address,54.7474906,-8.7019412
Unknown,Unknown Address,53.4541345,-7.1002992
Unknown,Unknown Address,53.6531337,-9.3638615
Unknown,Unknown Address,53.2274706,-8.8809019
Unknown,Unknown Address,53.22348,-9.5223806
Unknown,Unknown Address,53.2290325,-9.5304111
Unknown,Unknown Address,53.233764,-9.5407027
Unknown,Unknown Address,53.0866734,-8.8226067
Unknown,Unknown Address,53.332417,-9.6378306
Unknown,Unknown Address,53.3408831,-9.6634975
Unknown,Unknown Address,53.3374609,-9.5945644
Unknown,Unknown Address,53.3487868,-9.6403036
Unknown,Unknown Address,53.3540374,-9.6436813
Unknown,Unknown Address,52.4651451,-7.9063378
Unknown,Unknown Address,52.107944,-9.7882161
Unknown,Unknown Address,55.2245913,-7.8138962
Unknown,Unknown Address,53.2622562,-9.601779
Unknown,Unknown Address,55.2475175,-7.7020661
Unknown,Unknown Address,53.7383742,-9.2651427
Kells Bay Gardens,Unknown Address,52.0229317,-10.0998141
Erneside Multistorey,Unknown Address,54.3425373,-7.6344298
Unknown,Unknown Address,54.7973792,-8.2814061
Unknown,Unknown Address,54.7937653,-8.279629
Unknown,Unknown Address,53.3284755,-8.1846447
Unknown,Unknown Address,54.7092178,-7.9705696
Unknown,Unknown Address,54.5969222,-7.2707249
Unknown,Unknown Address,54.5996893,-7.2751245
Unknown,Unknown Address,53.8846534,-6.3486897
Unknown,Unknown Address,54.59814,-5.9240125
Unknown,Unknown Address,54.447225,-8.2840971
Unknown,Unknown Address,54.4463388,-8.2895072
Unknown,Unknown Address,53.3127775,-6.3590054
Unknown,Unknown Address,52.2937693,-8.2055598
Unknown,Unknown Address,53.2967539,-9.0041722
Unknown,Unknown Address,53.2972429,-9.0045478
Unknown,Unknown Address,53.2975596,-9.0033608
Unknown,Unknown Address,53.2981087,-9.0022676
Unknown,Unknown Address,53.2986497,-9.0015165
Unknown,Unknown Address,53.2994674,-9.0013086
Unknown,Unknown Address,53.2995515,-8.9954674
Unknown,Unknown Address,53.2999363,-8.9966343
Unknown,Unknown Address,53.3000645,-8.9998534
Unknown,Unknown Address,53.3008982,-8.9988876
Unknown,Unknown Address,54.1132546,-8.5726866
Unknown,Unknown Address,52.1740965,-8.2398544
Unknown,Unknown Address,54.6414773,-8.3893146
Unknown,Unknown Address,53.2484754,-6.1464384
Unknown,Unknown Address,53.2784531,-9.660508
Unknown,Unknown Address,53.2734544,-9.0726347
Unknown,Unknown Address,52.5640048,-8.7783765
Unknown,Unknown Address,54.4612871,-5.8373466
DÃºn a RÃ­ Forest Park,Unknown Address,53.9188569,-6.7932061
Parklands Multi-Storey Car Park,Unknown Address,52.2677198,-9.7071063
Unknown,Unknown Address,53.3300126,-6.2489392
Unknown,Unknown Address,54.9134646,-6.9025601
Unknown,Unknown Address,54.3264693,-8.3281717
Unknown,Unknown Address,52.5813948,-8.1678464
Unknown,Unknown Address,54.5770478,-5.8702207
Unknown,Unknown Address,53.7859004,-8.8526962
Church Car Park,Unknown Address,54.4056835,-5.8111343
Unknown,Unknown Address,54.4011433,-5.8120838
Unknown,Unknown Address,54.6251602,-5.757669
Unknown,Unknown Address,53.2015114,-8.5824459
Unknown,Unknown Address,53.2902976,-6.2872384
Unknown,Unknown Address,53.6500004,-9.6438191
Unknown,Unknown Address,54.1581367,-7.4662211
Unknown,Unknown Address,53.4196182,-7.9077265
Unknown,Unknown Address,53.4175063,-7.9052232
Unknown,Unknown Address,53.515508,-9.5607453
Unknown,Unknown Address,53.9541766,-9.3155503
Unknown,Unknown Address,52.263392,-9.7001693
Unknown,Unknown Address,53.2932904,-6.1936106
Unknown,Unknown Address,53.292525,-6.1931204
Unknown,Unknown Address,53.2498084,-9.579378
Unknown,Unknown Address,53.234673,-9.3946033
CÃ©ibh An SpidÃ©il,Unknown Address,53.2418073,-9.3112806
Unknown,Unknown Address,53.2403398,-9.600946
Unknown,Unknown Address,53.5421146,-9.2874143
Unknown,Unknown Address,54.0479404,-8.0520855
Unknown,Unknown Address,54.4092598,-7.171765
Unknown,Unknown Address,54.4144776,-6.1538241
Unknown,Unknown Address,54.4142934,-6.1615489
Unknown,Braemor Park,53.3035334,-6.2667508
Unknown,Unknown Address,54.4130259,-6.1359988
Unknown,Unknown Address,52.7800536,-8.8802656
Unknown,Unknown Address,53.976166,-9.0394072
Unknown,Unknown Address,54.0959576,-10.1110226
Redburn Country Park,Unknown Address,54.6212146,-5.844942
Orlock Point,Unknown Address,54.6693006,-5.5746605
Erris Head,Unknown Address,54.2885565,-9.9885619
Unknown,Unknown Address,54.2431257,-8.8099908
Unknown,Unknown Address,54.1721656,-7.7711131
Unknown,Unknown Address,54.4843753,-8.0975381
Unknown,Unknown Address,54.5071929,-8.1082589
Unknown,Unknown Address,53.0910776,-6.1125941
Unknown,Unknown Address,53.6299453,-9.610446
Unknown,Unknown Address,53.6515999,-9.6406585
Unknown,Unknown Address,53.6463524,-9.7473495
Unknown,Unknown Address,54.5078029,-8.2250961
Unknown,Unknown Address,54.4979025,-8.1933463
Unknown,Unknown Address,54.5062443,-7.9481365
Unknown,Unknown Address,54.4066879,-7.626588
Unknown,Unknown Address,54.2479295,-7.6285084
Unknown,Unknown Address,53.287637,-6.148415
Unknown,Unknown Address,53.323798,-6.3277544
Unknown,Unknown Address,53.2565913,-6.1147939
Green Car Park,Ballinteer Road,53.2889613,-6.2446632
Red Car Park,Sandyford Road,53.2862418,-6.2391647
Red Car Park,Sandyford Road,53.2860532,-6.2399261
Unknown,Unknown Address,52.5517208,-9.1466163
Unknown,Unknown Address,53.2717194,-6.2042465
Unknown,Unknown Address,53.2717964,-6.203544
Unknown,Unknown Address,53.2722835,-6.2016494
Unknown,Unknown Address,54.7161371,-6.1618524
Unknown,Unknown Address,54.700796,-6.1495277
Unknown,Unknown Address,53.2721662,-6.2817863
Unknown,Unknown Address,53.2890821,-6.2459585
Unknown,Unknown Address,54.4729679,-7.6383814
Unknown,Unknown Address,53.2820767,-6.2422836
Unknown,Unknown Address,53.2828144,-6.2446541
Unknown,Unknown Address,54.871403,-6.3042483
Unknown,Unknown Address,53.2989612,-6.2325418
Clearwater Court,Church Road,53.1454645,-6.0634351
Unknown,Unknown Address,53.3260033,-6.2453614
Unknown,Unknown Address,53.3570256,-6.2318537
Unknown,Unknown Address,53.299358,-6.2039339
Unknown,Unknown Address,53.3126623,-6.2045748
Unknown,Unknown Address,53.312745,-6.2031611
Unknown,Unknown Address,53.3433225,-6.2967007
Unknown,Unknown Address,52.1060429,-9.7906153
Unknown,Unknown Address,53.282702,-6.1456547
Unknown,Unknown Address,53.3005816,-6.2279133
Unknown,Unknown Address,53.2989004,-6.2455372
Unknown,Unknown Address,53.394651,-6.2630052
Unknown,Unknown Address,53.3209555,-6.2347205
Unknown,Unknown Address,53.2773904,-6.2150907
Unknown,Unknown Address,53.2774382,-6.215043
Unknown,Unknown Address,53.3460249,-6.3075727
Unknown,Unknown Address,53.2825459,-6.3772225
Unknown,Unknown Address,53.1107605,-6.2583872
Unknown,Unknown Address,53.2441633,-9.3001361
Unknown,Unknown Address,53.3132191,-6.234941
Unknown,Unknown Address,53.186072,-6.1799056
Unknown,Unknown Address,53.2501716,-6.1321108
Unknown,Unknown Address,53.9835467,-8.2315714
Unknown,Unknown Address,53.3416412,-6.3266686
Unknown,Unknown Address,53.9430814,-8.0923746
Unknown,Unknown Address,53.9431399,-8.0915673
Unknown,Unknown Address,53.9432323,-8.0909554
Unknown,Unknown Address,53.9433435,-8.0903595
Unknown,Unknown Address,52.2165875,-6.7199973
Unknown,Unknown Address,54.0035217,-6.3960001
Unknown,Unknown Address,53.2769374,-6.215616
Unknown,Unknown Address,54.0047278,-6.4033448
Unknown,Unknown Address,53.5204294,-9.4248626
Unknown,Unknown Address,54.2115775,-9.0986149
Unknown,Unknown Address,53.5230049,-9.3928966
Unknown,Unknown Address,53.3291743,-8.4060569
Unknown,Unknown Address,52.654008,-8.562032
Unknown,Unknown Address,53.270811,-8.4104166
Unknown,Unknown Address,53.3409078,-6.2846135
Unknown,Unknown Address,53.6322246,-6.6648065
Unknown,Unknown Address,55.4856216,-5.7131347
Unknown,Unknown Address,53.3279581,-6.3918679
Dunnes Stores Car Park,Barrack Street,52.5028266,-6.5686836
Unknown,Unknown Address,53.5853233,-9.5038731
Unknown,Unknown Address,53.3486654,-6.2511019
Unknown,Unknown Address,53.6697242,-6.9315759
Unknown,Unknown Address,53.2684944,-9.1004145
Unknown,Unknown Address,53.2684583,-9.0998905
Unknown,Unknown Address,53.2688393,-9.1002249
Unknown,Unknown Address,52.9789467,-6.0377632
Unknown,Unknown Address,53.2686671,-9.0776721
Unknown,Unknown Address,53.4848041,-9.4555856
Unknown,Unknown Address,53.3865756,-9.22505
Unknown,Unknown Address,52.1411507,-10.265307
Unknown,Unknown Address,53.6161971,-6.1831344
Unknown,Unknown Address,52.0672531,-9.5467684
Unknown,Northbrook Road,53.3287779,-6.2540511
Unknown,Unknown Address,53.9644055,-6.3643442
Unknown,Unknown Address,53.9981379,-6.4054437
Unknown,Unknown Address,52.9449536,-9.0679156
Unknown,Unknown Address,52.9453197,-9.0625698
Unknown,Unknown Address,53.3897754,-6.2989838
Unknown,Unknown Address,55.0050341,-7.3219181
Unknown,Unknown Address,55.0574085,-7.9379076
Unknown,Unknown Address,53.4318442,-8.2625852
Unknown,Unknown Address,53.4403186,-8.2371609
Unknown,Unknown Address,53.2819477,-8.1488683
Unknown,Unknown Address,53.7689264,-9.8243419
Unknown,Unknown Address,53.7623704,-9.8094862
Unknown,Unknown Address,54.303762,-8.1756421
Unknown,Unknown Address,54.4146699,-7.7279655
Unknown,Leeson Street Lower,53.3353902,-6.2565702
Conrad Hotel,Earlsfort Terrace,53.33506,-6.2575074
Earslfort Centre,Hatch Street Lower,53.3342585,-6.2578823
Unknown,Unknown Address,52.0604063,-9.4823734
Unknown,Unknown Address,53.7118529,-6.3524827
Unknown,Unknown Address,53.7027998,-6.3779431
Unknown,Grove Road,53.3295857,-6.2675763
Unknown,Unknown Address,53.8299111,-6.3952469
Unknown,Unknown Address,53.4058288,-6.2879523
Unknown,Unknown Address,53.4065388,-6.2858447
Unknown,Unknown Address,53.3446896,-6.2393187
Unknown,Unknown Address,53.4908033,-6.1396226
Unknown,Unknown Address,52.0246219,-10.1041995
Unknown,Unknown Address,52.2285882,-9.4644984
Unknown,Unknown Address,52.2766643,-9.8238367
Unknown,Unknown Address,53.7619305,-8.7673116
Unknown,Unknown Address,52.8241731,-7.8721529
Unknown,Unknown Address,54.6319807,-8.5865558
Unknown,Unknown Address,55.1833293,-7.971809
Unknown,Unknown Address,54.9931796,-7.319287
Unknown,Unknown Address,52.781816,-8.7179766
Unknown,Unknown Address,52.8195482,-8.6533331
SuperValu Multistorey,Unknown Address,53.487895,-10.0237573
Unknown,Unknown Address,53.9723362,-8.4748897
Moyvalley Golf Course Parking,Unknown Address,53.4159811,-6.9226281
Unknown,Unknown Address,53.2299514,-8.8629316
Ballyhoura Canon Sheehan Loop,Unknown Address,52.2717281,-8.509341
Unknown,Malahide Road,53.3811092,-6.2075117
Unknown,Unknown Address,54.0038463,-6.4027736
Unknown,Unknown Address,53.3842239,-6.5877086
Layby,Unknown Address,55.0800285,-6.806248
Unknown,Unknown Address,52.1501185,-10.4663495
Unknown,Unknown Address,53.3403734,-6.1797923
Unknown,Unknown Address,52.8664928,-8.1999184
Unknown,Unknown Address,54.4093677,-6.7490756
Unknown,Unknown Address,52.023587,-9.4883152
Unknown,Unknown Address,53.3434975,-6.2731621
Unknown,Unknown Address,52.4556385,-9.0523282
Unknown,Unknown Address,52.4560803,-9.0527091
Unknown,Unknown Address,52.4502117,-9.0541383
Les Buissonnets,Sweetman's Avenue,53.2993,-6.1777627
Unknown,Unknown Address,52.5547662,-8.7910711
Unknown,Unknown Address,55.0275755,-8.2718056
Shelbourne Hotel Car Park,Kildare Street,53.3395602,-6.2562076
Unknown,Unknown Address,53.4043138,-6.2442893
Unknown,Unknown Address,52.8885842,-6.2074781
Unknown,Unknown Address,52.0363388,-10.0281052
Unknown,Unknown Address,52.1684009,-7.5964986
Unknown,Unknown Address,53.1205972,-9.1577365
Unknown,Unknown Address,54.5775783,-5.8843019
Unknown,Unknown Address,52.8393576,-6.9119849
Fermoy Car Park,Unknown Address,52.1369971,-8.2765008
Unknown,Unknown Address,53.32529,-6.2247367
Unknown,Unknown Address,53.6639422,-6.6702881
Grand Canal Square,Unknown Address,53.3434679,-6.2397641
Unknown,Unknown Address,53.3481908,-6.2388438
Unknown,Unknown Address,55.1986575,-7.5396062
Unknown,Unknown Address,54.9599258,-5.9174506
Unknown,Unknown Address,54.9526175,-5.9113404
Unknown,Unknown Address,53.2270873,-8.8804881
Unknown,Unknown Address,55.1323124,-6.3777992
Disabled,Unknown Address,52.3956697,-6.9306059
Unknown,Unknown Address,53.2407217,-9.3121647
Parking for the Woods,Unknown Address,52.5503135,-8.057657
Unknown,Unknown Address,53.4047655,-6.2539844
Unknown,Unknown Address,54.5953887,-5.6988822
Unknown,Unknown Address,52.8614255,-8.2118325
Cumber Forest Car Park,Unknown Address,54.9061044,-7.1578484
Unknown,Unknown Address,53.287932,-6.1397852
Unknown,Unknown Address,53.260181,-8.707729
Unknown,Unknown Address,53.3956616,-8.6235112
Unknown,Unknown Address,53.3016281,-6.2752261
Unknown,Unknown Address,53.3010854,-6.2833529
Unknown,Unknown Address,53.292063,-6.2812917
Unknown,Unknown Address,53.2934906,-6.3028088
Unknown,Unknown Address,53.3049864,-6.2065973
Unknown,Unknown Address,53.2870049,-6.3282964
Unknown,Unknown Address,53.287181,-6.3278982
Unknown,Unknown Address,53.4155444,-6.3621331
Unknown,Unknown Address,53.4139486,-6.3650078
Unknown,Unknown Address,55.1029606,-6.5977192
Unknown,Unknown Address,53.2825753,-6.3772293
Hagâ€™s Bed,Unknown Address,52.174114,-8.3345415
Unknown,Unknown Address,53.3250103,-6.2679179
Dunnamore Riverside Walk,Unknown Address,54.6673747,-6.9298987
Unknown,Unknown Address,53.4442778,-6.8022158
Unknown,Unknown Address,53.3443696,-6.2979465
HSQ Office parking,Unknown Address,53.3440763,-6.2990666
HSQ Residental/Office parking,Unknown Address,53.344126,-6.2986447
Unknown,Unknown Address,52.4018645,-6.9297065
Unknown,Unknown Address,53.2824537,-6.1611836
Unknown,Unknown Address,53.2829262,-6.1621705
Unknown,Unknown Address,53.2829915,-6.1634413
Unknown,Unknown Address,52.4966297,-6.5718384
Unknown,Unknown Address,52.4949302,-6.5754986
Unknown,Unknown Address,53.2832953,-6.1956482
Cill Dara Primary Care car park,Unknown Address,53.1536164,-6.9023109
Unknown,Unknown Address,52.221702,-6.7888083
Unknown,Unknown Address,52.6668552,-8.6207328
Unknown,Unknown Address,52.1789426,-6.5910332
Unknown,Unknown Address,52.2152682,-6.4918597
Unknown,Unknown Address,52.1873583,-6.5224212
Unknown,Unknown Address,52.2672034,-6.7540941
Unknown,Unknown Address,52.2671176,-6.7547899
Thomas Street Car Park,Unknown Address,52.6616247,-8.623977
Unknown,Unknown Address,53.7569259,-8.7638318
Unknown,Unknown Address,53.9692317,-10.1566809
Unknown,Unknown Address,53.9704655,-10.1902863
Unknown,Unknown Address,52.454881,-6.8487103
Disabled,Unknown Address,54.5790866,-5.9804898
Unknown,Unknown Address,53.4515109,-6.2277434
Unknown,Unknown Address,52.5716019,-9.8351912
Courttown Woodland car park,Unknown Address,52.648621,-6.2372491
Unknown,Unknown Address,54.9677087,-5.9574178
Unknown,Unknown Address,54.9689988,-5.9502125
Unknown,Unknown Address,54.9686638,-5.952901
Unknown,Unknown Address,54.9677717,-5.9598094
Unknown,Unknown Address,53.3951241,-6.2136088
Unknown,Unknown Address,53.2896569,-6.1487648
Unknown,Unknown Address,53.3411774,-6.3021831
Unknown,Unknown Address,53.3206193,-6.2652688
Unknown,Unknown Address,53.3369078,-6.2496981
Unknown,Unknown Address,53.4655934,-6.2143268
Unknown,Unknown Address,54.4146792,-6.7447432
Unknown,Unknown Address,52.4964512,-6.5716338
Unknown,Unknown Address,53.4224953,-6.1353682
Unknown,Unknown Address,52.1315009,-8.1745404
Unknown,Unknown Address,53.2917372,-6.2748329
Unknown,Broombridge Road,53.3723581,-6.2991461
Unknown,Unknown Address,52.6599309,-8.6278782
Unknown,Unknown Address,53.1730919,-6.5272334
Unknown,Unknown Address,52.9362001,-8.8971233
Unknown,Unknown Address,53.4364185,-6.1247717
Unknown,Unknown Address,53.35867,-6.2648733
Unknown,Unknown Address,53.363645,-6.2592869
Unknown,Unknown Address,55.1539563,-7.1453346
Unknown,Unknown Address,53.6444535,-6.6822607
Unknown,Unknown Address,53.401863,-6.2715664
Unknown,Unknown Address,53.1571191,-9.0882923
Blackhall bridge,Unknown Address,53.1445768,-7.2072378
Unknown,Unknown Address,53.3233708,-6.2398375
Unknown,Unknown Address,53.4732745,-7.0111799
Unknown,Unknown Address,53.4292442,-6.9160545
Unknown,Unknown Address,53.4963369,-7.1265664
Unknown,Unknown Address,53.4454365,-6.2154553
Unknown,Unknown Address,53.3433872,-6.2508057
Unknown,Unknown Address,53.490377,-7.2026541
Unknown,Unknown Address,53.4945946,-7.1555931
Unknown,Unknown Address,53.5097686,-7.2896078
Unknown,Unknown Address,53.2560243,-6.2200784
Unknown,Unknown Address,53.2707989,-6.3265842
Unknown,Unknown Address,53.3204422,-6.3887911
Unknown,Unknown Address,53.3210738,-6.3898901
Unknown,Unknown Address,53.3709076,-6.2385731
Unknown,Unknown Address,52.7687389,-8.3271136
Unknown,Unknown Address,53.2877805,-6.2453686
Unknown,Unknown Address,53.3772599,-6.2755979
Unknown,Unknown Address,53.4282211,-8.8369304
Unknown,Unknown Address,53.3843288,-6.1757897
Unknown,Unknown Address,54.8117672,-5.9050223
Unknown,Unknown Address,54.7372569,-5.962694
Unknown,Unknown Address,54.2587195,-8.4610793
Unknown,Unknown Address,54.6470728,-8.6720593
Unknown,Unknown Address,53.2720539,-6.2470268
Unknown,Unknown Address,52.3362134,-6.4625124
Unknown,Unknown Address,53.1289213,-6.5225181
Unknown,Unknown Address,55.0260316,-6.9371086
Unknown,Unknown Address,53.3040217,-6.3657801
Unknown,Unknown Address,53.2716321,-6.1258042
Unknown,Unknown Address,53.2532315,-6.1246679
Unknown,Unknown Address,53.4924504,-6.1359991
Unknown,Unknown Address,52.8382858,-8.9624579
Glenabo Carpark,Unknown Address,52.1279641,-8.2982502
Unknown,Unknown Address,52.986947,-9.14
Unknown,Unknown Address,53.2792487,-6.2889004
Unknown,Unknown Address,54.9922636,-5.9900856
Unknown,Unknown Address,54.2440192,-8.4454983
Unknown,Unknown Address,54.2708999,-8.4794296
Unknown,Unknown Address,54.2118439,-8.5071757
Unknown,Unknown Address,54.2678917,-8.4700781
Unknown,Unknown Address,54.3433394,-7.6391063
Unknown,Unknown Address,53.3519603,-6.3364242
Unknown,Unknown Address,53.3523012,-6.3382131
Unknown,Unknown Address,52.4061533,-8.1221033
Disabled,Unknown Address,54.2724364,-8.473977
Ebrington,Unknown Address,54.9970866,-7.3117114
Unknown,Unknown Address,53.9727845,-10.0848256
Unknown,Unknown Address,53.9751223,-10.0754642
Unknown,Unknown Address,53.9694773,-10.1598164
Unknown,Unknown Address,54.1441502,-9.7399209
Unknown,Unknown Address,52.9577795,-7.7988536
Unknown,Unknown Address,55.0553254,-7.0408464
Unknown,Unknown Address,55.0958333,-7.0221226
Unknown,Unknown Address,55.079613,-7.0132454
Unknown,Unknown Address,52.0814725,-7.5521627
Unknown,Unknown Address,52.8090297,-9.4902981
Unknown,Unknown Address,52.8100808,-9.4728933
Unknown,Unknown Address,52.2027083,-7.9837267
Unknown,Unknown Address,53.3302541,-6.2482256
Unknown,Unknown Address,53.3301985,-6.2495053
Unknown,Unknown Address,53.3300494,-6.2482709
Unknown,Unknown Address,53.331061,-6.2482371
Unknown,Unknown Address,54.3780749,-5.5393057
Unknown,Unknown Address,53.3666045,-6.1473787
Unknown,Unknown Address,53.3687027,-6.1439289
Unknown,Unknown Address,52.2608268,-8.8031649
Unknown,Unknown Address,52.2648376,-8.793799
Unknown,Unknown Address,53.2778831,-6.1365482
Unknown,Unknown Address,53.2774942,-6.1378638
Unknown,Unknown Address,55.0898407,-6.7726211
Charlotte,Unknown Address,53.2795277,-6.1452932
Neptune,Unknown Address,53.2801554,-6.1436214
Unknown,Unknown Address,53.3373716,-6.315903
Unknown,Unknown Address,53.3398677,-6.315596
Unknown,Unknown Address,53.3043119,-8.9336461
Unknown,Unknown Address,53.7220161,-9.899738
Unknown,Unknown Address,53.4620014,-6.2293982
Unknown,Unknown Address,52.341697,-6.465608
Unknown,Unknown Address,55.1127055,-7.2089104
Unknown,Unknown Address,53.2957468,-6.4752337
Unknown,Unknown Address,52.1420535,-9.9809021
Unknown,Unknown Address,53.2891095,-6.2861633
Unknown,Unknown Address,52.1854136,-10.3363631
Unknown,Unknown Address,52.7951689,-6.9911115
Unknown,Unknown Address,53.3397019,-6.2626109
Unknown,Unknown Address,54.7185539,-7.3756635
Unknown,Unknown Address,52.1557635,-9.2339615
Unknown,Unknown Address,52.3434071,-6.4833762
Unknown,Unknown Address,52.3435781,-6.4835806
Unknown,Unknown Address,53.3257319,-6.3511216
Glenevin Waterfall,Unknown Address,55.2675854,-7.4361851
Unknown,Unknown Address,52.3304203,-8.1117884
Unknown,Unknown Address,55.2588024,-7.0140991
Unknown,Unknown Address,53.2889386,-6.3767848
Unknown,Unknown Address,53.9809885,-9.9997437
Unknown,Unknown Address,53.9953416,-10.0592893
Unknown,Unknown Address,53.995773,-10.0544351
Unknown,Unknown Address,53.9305144,-9.9295034
Unknown,Unknown Address,53.8026285,-9.5605811
Unknown,Unknown Address,53.3041295,-6.1882163
Unknown,Unknown Address,53.3105065,-6.2083622
Unknown,Unknown Address,53.3034298,-6.1890141
Unknown,Unknown Address,53.309357,-6.1975948
Unknown,Unknown Address,53.3095374,-6.1955326
Unknown,Unknown Address,53.305354,-6.1874424
Unknown,Unknown Address,53.2918193,-6.2160174
Unknown,Unknown Address,53.2921961,-6.137605
Unknown,Unknown Address,53.2917304,-6.1401518
Unknown,Unknown Address,53.2912959,-6.1339331
Unknown,Unknown Address,53.2912414,-6.1337896
Unknown,Unknown Address,53.2930867,-6.1352836
Unknown,Unknown Address,53.2926835,-6.1357047
Unknown,Unknown Address,53.2926466,-6.1357422
Unknown,Unknown Address,53.2926073,-6.1357784
Unknown,Unknown Address,53.29214,-6.1376627
Unknown,Unknown Address,53.2921688,-6.1376412
Unknown,Unknown Address,53.2931508,-6.1409953
Unknown,Unknown Address,53.2914049,-6.141344
Unknown,Unknown Address,53.294463,-6.1328508
Unknown,Unknown Address,53.2944855,-6.1329044
Unknown,Unknown Address,53.2960886,-6.1469056
Unknown,Unknown Address,53.2961527,-6.1469539
Unknown,Unknown Address,53.2955965,-6.1381978
Unknown,Unknown Address,53.2961367,-6.1415358
Unknown,Unknown Address,53.2962305,-6.1479436
Unknown,Unknown Address,53.2962257,-6.1479892
Unknown,Unknown Address,53.2949328,-6.1442274
Unknown,Unknown Address,53.2953095,-6.1422399
Unknown,Unknown Address,53.2953111,-6.1423498
Unknown,Unknown Address,53.2949007,-6.1421916
Unknown,Unknown Address,52.6572476,-8.5706283
Unknown,Unknown Address,53.2956646,-6.2095941
Unknown,Unknown Address,53.2950626,-6.2096559
Unknown,Unknown Address,53.2950257,-6.209558
Unknown,Unknown Address,53.295041,-6.2096022
Unknown,Unknown Address,53.3039768,-6.2446171
Unknown,Unknown Address,53.3043742,-6.2443596
Unknown,Unknown Address,53.3042556,-6.2495631
Unknown,Unknown Address,53.3034991,-6.250416
Unknown,Unknown Address,53.3046595,-6.2503731
Unknown,Unknown Address,53.3020918,-6.2502176
Unknown,Unknown Address,53.3018674,-6.2502229
Unknown,Unknown Address,53.3020277,-6.2482649
Unknown,Unknown Address,53.3019828,-6.247353
Unknown,Unknown Address,53.3028836,-6.2501693
Unknown,Unknown Address,53.3031241,-6.2501693
Unknown,Unknown Address,53.3033709,-6.2502068
Unknown,Unknown Address,53.3036113,-6.2502015
Unknown,Unknown Address,53.3048583,-6.2503624
Unknown,Unknown Address,53.298494,-6.3036968
Unknown,Unknown Address,53.2973927,-6.2966064
Unknown,Unknown Address,53.2973566,-6.2966278
Unknown,Unknown Address,53.2971354,-6.2967499
Unknown,Unknown Address,53.2970921,-6.2967673
Unknown,Unknown Address,53.2967034,-6.2970932
Unknown,Unknown Address,53.2966625,-6.2971133
Unknown,Unknown Address,53.2963692,-6.2973171
Unknown,Unknown Address,52.2631409,-10.1857746
Unknown,Unknown Address,53.3883995,-6.0706866
Unknown,Unknown Address,53.2924943,-6.2296289
Unknown,Unknown Address,53.2924711,-6.2295216
Unknown,Unknown Address,53.29252,-6.2295619
Unknown,Unknown Address,53.2923075,-6.2294291
Unknown,Unknown Address,53.2922129,-6.229641
Unknown,Unknown Address,53.3106046,-6.2365155
Unknown,Unknown Address,53.3106255,-6.2365597
Unknown,Unknown Address,53.3106471,-6.2366094
Unknown,Unknown Address,53.3106663,-6.236655
Unknown,Unknown Address,53.3014603,-6.1749226
Unknown,Unknown Address,53.3017977,-6.1760384
Unknown,Unknown Address,53.3054501,-6.1872547
Unknown,Unknown Address,53.2982752,-6.1816469
Unknown,Unknown Address,53.2982441,-6.1849329
Unknown,Unknown Address,53.3078185,-6.2470874
Unknown,Unknown Address,53.3079227,-6.2472993
Unknown,Unknown Address,53.2852695,-6.1951599
Unknown,Unknown Address,53.2853208,-6.1951545
Unknown,Unknown Address,53.2688753,-6.1697057
Unknown,Unknown Address,53.261969,-6.1531833
Unknown,Unknown Address,53.260022,-6.1493263
Unknown,Unknown Address,53.2608234,-6.1502436
Unknown,Unknown Address,53.2612089,-6.1510073
Unknown,Unknown Address,53.252614,-6.2135383
Unknown,Unknown Address,53.2532082,-6.2138602
Unknown,Unknown Address,53.2640651,-6.2148567
Unknown,Unknown Address,53.2640402,-6.2149116
Unknown,Unknown Address,53.263964,-6.2150806
Unknown,Unknown Address,53.2639431,-6.2151316
Unknown,Unknown Address,54.6267498,-8.663608
Unknown,Unknown Address,53.1527639,-6.9174197
Unknown,Unknown Address,53.1528041,-6.9174197
Unknown,Unknown Address,53.1528444,-6.9174197
Unknown,Unknown Address,53.1528814,-6.9174305
Unknown,Unknown Address,53.1529216,-6.9174331
Unknown,Unknown Address,53.1529602,-6.9174305
Unknown,Unknown Address,53.2943628,-6.1443856
Unknown,Unknown Address,53.2943412,-6.1443856
Unknown,Unknown Address,53.293934,-6.1499968
Unknown,Unknown Address,53.294742,-6.1671214
Unknown,Unknown Address,53.2986047,-6.1681495
Unknown,Unknown Address,53.2960191,-6.1641146
Unknown,Unknown Address,53.2928882,-6.1524326
Unknown,Unknown Address,53.2935978,-6.1541868
Unknown,Unknown Address,53.2938405,-6.1509077
Unknown,Unknown Address,53.2963363,-6.1629513
Unknown,Unknown Address,53.3016535,-6.2442328
Unknown,Unknown Address,53.3016299,-6.2439589
Unknown,Unknown Address,53.3015657,-6.2432335
Unknown,Unknown Address,53.3016666,-6.242405
Unknown,Unknown Address,53.3017425,-6.2419821
Unknown,Unknown Address,53.3017687,-6.2418528
Unknown,Unknown Address,53.3022743,-6.2404874
Unknown,Unknown Address,53.30229,-6.2404129
Unknown,Unknown Address,53.3025113,-6.2391154
Unknown,Unknown Address,53.3016063,-6.2393521
Unknown,Unknown Address,53.3014871,-6.2399855
Unknown,Unknown Address,53.301478,-6.2432203
Unknown,Unknown Address,53.3013955,-6.2447413
Unknown,Unknown Address,53.3080021,-6.2473417
Unknown,Unknown Address,53.3022765,-6.2450098
Unknown,Unknown Address,53.2810729,-6.1479852
Unknown,Unknown Address,53.290145,-6.1950592
Unknown,Unknown Address,53.2902833,-6.1356367
Unknown,Unknown Address,53.2906709,-6.1355454
Unknown,Unknown Address,53.2907881,-6.1354712
Unknown,Unknown Address,53.2910153,-6.1353108
Unknown,Unknown Address,53.2909088,-6.1323319
Unknown,Unknown Address,53.2912727,-6.1319102
Unknown,Unknown Address,53.2914343,-6.1316845
Unknown,Unknown Address,53.2904046,-6.131242
Unknown,Unknown Address,53.2900034,-6.1307163
Unknown,Unknown Address,53.2900566,-6.129258
Unknown,Unknown Address,53.2691993,-6.1157826
Unknown,Unknown Address,53.2676353,-6.114656
Unknown,Unknown Address,53.2553282,-6.1132298
Unknown,Unknown Address,53.2554711,-6.1132121
Unknown,Unknown Address,53.236674,-6.1221045
Unknown,Unknown Address,53.2367792,-6.121662
Unknown,Unknown Address,53.25152,-6.1140016
Unknown,Unknown Address,53.2432827,-6.1236535
Unknown,Unknown Address,53.2341696,-6.1215869
Unknown,Unknown Address,53.233749,-6.1229816
Unknown,Unknown Address,53.2336952,-6.1229789
Unknown,Unknown Address,53.2308078,-6.1241075
Unknown,Unknown Address,53.2290521,-6.1177781
Unknown,Unknown Address,53.2226098,-6.116779
Unknown,Unknown Address,53.2749104,-6.2534979
Unknown,Unknown Address,53.2748964,-6.2535294
Unknown,Unknown Address,53.2748523,-6.25363
Unknown,Unknown Address,53.2882599,-6.2569204
Unknown,Unknown Address,53.2895547,-6.2614681
Unknown,Unknown Address,53.2899822,-6.2747643
Unknown,Unknown Address,53.29155,-6.2740383
Unknown,Unknown Address,53.2923588,-6.2718482
Unknown,Unknown Address,53.2994983,-6.2678397
Unknown,Unknown Address,53.3006102,-6.2635342
Unknown,Unknown Address,53.2984828,-6.1865647
Unknown,Unknown Address,53.2984764,-6.1866023
Unknown,Unknown Address,53.3585995,-6.4484905
Unknown,Unknown Address,53.356883,-6.4503761
Unknown,Unknown Address,53.3564348,-6.4507502
Unknown,Unknown Address,53.3573,-6.4500073
Unknown,Unknown Address,53.2693938,-9.0607063
Unknown,Unknown Address,53.3874786,-6.0654182
Unknown,Unknown Address,53.3877156,-6.0670644
Unknown,Unknown Address,53.3852233,-6.0651043
Unknown,Unknown Address,54.5467551,-5.6977326
Unknown,Unknown Address,53.3807586,-6.0951358
Ross Hotel Public Car Park,Unknown Address,52.0587557,-9.5051977
Unknown,Unknown Address,53.5630249,-10.1501368
Unknown,Unknown Address,54.1806275,-8.6032346
Unknown,Unknown Address,53.2859229,-6.1455242
Unknown,Unknown Address,53.2704497,-6.1418983
Unknown,Unknown Address,53.2634305,-6.1538545
Unknown,Unknown Address,53.2631417,-6.153259
Unknown,Unknown Address,53.2632253,-6.1541782
Unknown,Unknown Address,53.2618895,-6.1507431
Unknown,Unknown Address,52.1643347,-7.6074435
Unknown,Unknown Address,55.1989478,-6.5279261
Unknown,Unknown Address,55.1986361,-6.5274785
dlr LexIcon Car Park,Unknown Address,53.29333,-6.1323734
Unknown,Unknown Address,55.1937703,-6.2422246
Unknown,Unknown Address,55.0193847,-8.1110416
Unknown,Unknown Address,55.1734618,-6.2266956
Unknown,Unknown Address,54.5307476,-6.0004071
Unknown,Unknown Address,53.2772704,-6.2663095
Beacon Hospital,Blackthorn Road,53.2767693,-6.2189189
Unknown,Unknown Address,52.9851308,-8.0327451
Unknown,Unknown Address,52.9774661,-8.0332846
Unknown,Unknown Address,53.4112525,-6.473585
Unknown,Unknown Address,52.3415715,-6.4921661
Unknown,Unknown Address,53.348078,-6.2440898
Unknown,Unknown Address,54.1894016,-8.4478024
Unknown,Unknown Address,55.0191036,-6.1214018
Unknown,Unknown Address,53.3331293,-6.2637722
Unknown,Unknown Address,54.7700618,-6.5619728
Unknown,Unknown Address,55.0263456,-7.1784371
Unknown,Unknown Address,55.0363637,-7.1958314
Unknown,Unknown Address,53.2883511,-6.244147
Unknown,Unknown Address,54.1694319,-8.6048316
Public Car Park,Unknown Address,54.4974723,-7.3178925
Unknown,Unknown Address,54.3736513,-8.4662859
Unknown,Unknown Address,55.0358404,-7.193132
Unknown,Unknown Address,53.2926992,-6.2873038
Unknown,Unknown Address,52.953841,-8.0412457
Unknown,Unknown Address,52.9551725,-8.0337931
Unknown,Unknown Address,52.9979497,-8.1315883
Unknown,Unknown Address,54.5752415,-6.0579978
Unknown,Unknown Address,54.0582033,-8.4534552
Unknown,Unknown Address,53.2801649,-6.1810088
Unknown,Unknown Address,53.988951,-8.063824
Unknown,Unknown Address,52.8329865,-9.0303494
Unknown,Unknown Address,52.1627491,-7.8507174
Unknown,Unknown Address,54.7721888,-6.5016729
Unknown,Unknown Address,53.2320617,-6.6517386
Unknown,Unknown Address,53.2313786,-6.6518317
Unknown,Unknown Address,53.2307233,-6.6482526
Unknown,Unknown Address,53.2270738,-6.6543914
Unknown,Unknown Address,53.2281008,-6.6477398
Unknown,Unknown Address,53.2310811,-6.651969
Unknown,Unknown Address,53.2531135,-6.3764041
Unknown,Unknown Address,53.2508912,-6.3766038
Unknown,Unknown Address,53.370967,-6.7346658
Unknown,Unknown Address,53.2342397,-6.640011
Unknown,Unknown Address,52.6727628,-6.4790446
Unknown,Unknown Address,53.2742064,-6.1453613
Unknown,Unknown Address,53.4854617,-7.0769441
Unknown,Unknown Address,53.4131651,-6.8551053
Unknown,Unknown Address,52.1277212,-7.4425189
Unknown,Unknown Address,52.6448748,-6.2304564
Portlaoise Plaza,Unknown Address,53.0142982,-7.3068464
HGV Parking,Unknown Address,53.0145762,-7.3054675
Maldron Hotel,Unknown Address,53.014608,-7.300672
Midland Park Hotel,Unknown Address,53.0349029,-7.3015142
Church Street,Unknown Address,53.035016,-7.3016164
Church Street,Unknown Address,53.0351223,-7.3001463
Unknown,Unknown Address,52.7812547,-6.1455463
Unknown,Unknown Address,53.2640972,-8.9251122
Unknown,Unknown Address,52.0930381,-8.0073179
Unknown,Unknown Address,52.094653,-8.0074131
Unknown,Unknown Address,53.3965209,-6.2219148
Unknown,Unknown Address,52.5641673,-6.7474374
Unknown,Unknown Address,52.5644176,-6.7469801
Unknown,Unknown Address,53.0262955,-7.2061786
Unknown,Unknown Address,52.5649141,-6.7458737
Unknown,Unknown Address,54.8501228,-6.3657272
Unknown,Unknown Address,54.9872613,-7.290634
Unknown,Unknown Address,52.6016906,-6.5495333
Unknown,Unknown Address,53.2731644,-8.9300797
Unknown,Unknown Address,54.127231,-9.1460046
Unknown,Unknown Address,52.5584108,-6.9165945
Unknown,Unknown Address,52.2680984,-10.1610296
Unknown,Unknown Address,52.2687673,-10.1618624
Unknown,Unknown Address,52.2684431,-10.1611195
Unknown,Unknown Address,53.2951081,-6.2963026
Unknown,Unknown Address,53.2995328,-6.287025
Unknown,Unknown Address,53.2827348,-6.2810999
Unknown,Unknown Address,52.2125144,-10.3283058
Unknown,Unknown Address,52.2125604,-10.3279974
Unknown,Unknown Address,54.9182297,-6.9168156
Unknown,Unknown Address,54.1754979,-6.3421934
Unknown,Unknown Address,54.1298236,-6.3158074
Unknown,Unknown Address,52.4423538,-6.6356564
Unknown,Unknown Address,54.571094,-5.9264177
Unknown,Unknown Address,53.8206996,-9.3909141
Unknown,Unknown Address,53.8105362,-9.4567755
Unknown,Unknown Address,53.3105917,-6.2077959
Unknown,Unknown Address,52.1513996,-10.0584918
Unknown,Unknown Address,52.4029409,-9.632577
Unknown,Unknown Address,52.4031274,-9.6320057
Unknown,Unknown Address,53.2801327,-6.2886185
Unknown,Unknown Address,53.3389078,-6.5399271
Unknown,Unknown Address,53.3397244,-6.5386281
Unknown,Unknown Address,53.3394369,-6.5387716
Unknown,Unknown Address,53.3394537,-6.5389547
Unknown,Unknown Address,53.340349,-6.5381037
Unknown,Unknown Address,53.3379852,-6.5402274
Unknown,Unknown Address,53.700352,-7.8223996
Unknown,Unknown Address,53.3188528,-6.2143029
Unknown,Unknown Address,54.3830922,-7.3155556
Unknown,Unknown Address,53.3324743,-6.539532
Unknown,Unknown Address,53.3254067,-6.2256549
Unknown,Unknown Address,52.7483253,-7.5968598
Unknown,Unknown Address,53.2952855,-6.2097323
Unknown,Unknown Address,53.2953143,-6.2098047
Athlone Town Centre,Unknown Address,53.4236299,-7.9348526
Unknown,Unknown Address,54.3291191,-5.7162361
Unknown,Unknown Address,53.3438279,-6.5442158
Unknown,Unknown Address,53.3438231,-6.5442735
Unknown,Unknown Address,53.3438223,-6.5443151
Unknown,Unknown Address,53.3438199,-6.544362
Unknown,Unknown Address,53.3438199,-6.5444237
Unknown,Unknown Address,53.3438167,-6.5444787
Unknown,Unknown Address,53.3437519,-6.5441997
Unknown,Unknown Address,53.3437511,-6.5442614
Unknown,Unknown Address,53.3437503,-6.5443097
Unknown,Unknown Address,53.3437487,-6.5443607
Unknown,Unknown Address,53.3437463,-6.5444143
Unknown,Unknown Address,53.3437455,-6.5444841
Unknown,Unknown Address,55.1535877,-6.1076034
Unknown,Unknown Address,54.5642416,-6.1140665
Unknown,Unknown Address,53.3403834,-6.5258212
Unknown,Unknown Address,53.4291297,-9.3195527
Unknown,Unknown Address,54.9213131,-7.1686419
Unknown,Unknown Address,53.3663925,-6.3040409
Unknown,Unknown Address,53.3663018,-6.3039559
Unknown,Unknown Address,53.366445,-6.3029525
Unknown,Unknown Address,53.3663854,-6.3031549
Unknown,Unknown Address,52.140338,-8.2757189
Unknown,Unknown Address,53.3254067,-6.2256281
Unknown,Unknown Address,52.5297733,-8.259527
Unknown,Unknown Address,54.7386694,-6.3726058
Unknown,Unknown Address,54.9092579,-8.210417
Unknown,Unknown Address,54.5706756,-5.6578694
Unknown,Unknown Address,53.3118472,-7.391776
Unknown,Unknown Address,52.2184473,-10.3565656
Unknown,Unknown Address,52.2186446,-10.3574372
Unknown,Unknown Address,52.2121802,-10.3558137
Unknown,Unknown Address,52.2362537,-10.3111843
Unknown,Unknown Address,54.3160871,-7.7019229
Unknown,Unknown Address,52.8741147,-7.8334972
Unknown,Unknown Address,54.3073977,-7.9148511
Unknown,Unknown Address,54.9689799,-5.9526922
Unknown,Unknown Address,53.2513616,-9.1532514
Unknown,Unknown Address,54.3043579,-7.9661193
Unknown,Unknown Address,54.1173468,-8.6688871
Unknown,Unknown Address,54.4569335,-7.8071961
Unknown,Unknown Address,53.292165,-6.185227
Unknown,Unknown Address,53.4143922,-6.8389678
Unknown,Unknown Address,52.9503861,-9.4592152
Unknown,Unknown Address,54.8009907,-7.7866304
Unknown,Unknown Address,54.758926,-8.5103198
Unknown,Unknown Address,54.7571217,-8.4731099
Unknown,Unknown Address,54.9589667,-8.110684
Unknown,Unknown Address,54.6046416,-8.1611209
Unknown,Unknown Address,53.2720246,-7.8276667
Unknown,Unknown Address,53.2979581,-7.2923171
Unknown,Unknown Address,54.1183269,-7.9193969
Unknown,Unknown Address,54.1944231,-8.583558
Unknown,Unknown Address,53.1629122,-6.1218524
Unknown,Unknown Address,53.8113364,-9.4592066
Unknown,Unknown Address,53.8213021,-9.3878727
Unknown,Unknown Address,54.8897653,-7.4185279
Unknown,Unknown Address,55.4083504,-5.7533457
Unknown,Unknown Address,53.3698611,-6.258722
Unknown,Unknown Address,52.9496074,-9.0644738
Unknown,Unknown Address,53.2497932,-6.1841845
Unknown,Unknown Address,55.0414381,-7.3796421
Unknown,Unknown Address,55.0419606,-7.3796099
Unknown,Unknown Address,53.2742141,-9.0439146
Unknown,Unknown Address,53.2744554,-9.0462227
Unknown,Unknown Address,53.0629942,-8.8132687
Unknown,Unknown Address,54.6112936,-5.9387319
Unknown,Unknown Address,53.2994494,-6.1737759
Unknown,Unknown Address,54.6403186,-5.8461533
Unknown,Unknown Address,54.8430816,-8.3164307
Unknown,Unknown Address,54.8429064,-8.3160113
Unknown,Unknown Address,54.6399268,-8.1883596
Unknown,Unknown Address,53.3090125,-6.2150183
Unknown,Unknown Address,53.2748033,-8.9399975
Unknown,Unknown Address,53.2745025,-8.9398956
Unknown,Unknown Address,53.1400892,-8.9274231
Unknown,Unknown Address,54.9341276,-7.2101565
Unknown,Unknown Address,54.2124949,-9.0968487
Unknown,Unknown Address,54.2124658,-9.0962023
Unknown,Unknown Address,54.9213563,-7.1666626
Unknown,Unknown Address,53.3456063,-6.1942173
Unknown,Unknown Address,52.2108563,-7.5265816
Unknown,Unknown Address,52.1146977,-9.6675764
Unknown,Unknown Address,54.0175651,-7.4601555
Unknown,Unknown Address,53.3481263,-6.2351239
Unknown,Unknown Address,53.4554932,-9.3309316
Cliff Walk Parking,Unknown Address,52.9503989,-9.4591769
Unknown,Unknown Address,55.0801243,-7.8665985
Unknown,Unknown Address,53.0402858,-7.2724396
Unknown,Unknown Address,53.2714547,-6.2022758
Unknown,Unknown Address,53.269689,-6.2047413
Unknown,Unknown Address,53.1523763,-6.0678649
Unknown,Unknown Address,53.1535682,-6.0686991
Unknown,Unknown Address,53.2977524,-7.2904447
Unknown,Unknown Address,53.3403493,-7.0501449
Unknown,Unknown Address,53.3386926,-7.0507039
Unknown,Unknown Address,52.0471301,-7.5820951
Unknown,Unknown Address,54.3031686,-8.1737092
Unknown,Unknown Address,52.1398914,-7.0560506
Unknown,Unknown Address,54.9991156,-7.3055848
Unknown,Unknown Address,54.4528413,-6.3750261
Unknown,Unknown Address,54.4520743,-6.3768343
Unknown,Unknown Address,53.3215152,-6.2844034
Unknown,Unknown Address,52.0004861,-8.3092408
Unknown,Unknown Address,52.6357025,-7.2342335
Unknown,Unknown Address,53.3268068,-6.2254308
Buttercrane Shopping Centre,Unknown Address,54.1712589,-6.342241
Unknown,Unknown Address,52.5940489,-8.4707192
Unknown,Unknown Address,52.5945556,-8.4711416
Unknown,Unknown Address,53.6465647,-6.8074259
Unknown,Unknown Address,54.7194101,-6.8253349
Unknown,Unknown Address,54.7254644,-6.8325938
Unknown,Unknown Address,54.967789,-7.3548335
Unknown,Unknown Address,53.3490151,-6.2795376
Unknown,Unknown Address,54.3666436,-6.4253301
Unknown,Unknown Address,53.2446262,-6.1439415
Unknown,Unknown Address,53.2004546,-6.112679
Unknown,Unknown Address,55.0157693,-7.2819692
Unknown,Unknown Address,55.0208194,-7.3007149
Unknown,Unknown Address,53.339095,-6.266337
Unknown,Unknown Address,54.3913611,-5.9015874
Unknown,Unknown Address,52.1215988,-10.2822378
Unknown,Unknown Address,54.5061066,-5.6454026
Unknown,Unknown Address,53.5230488,-6.1673822
Unknown,Unknown Address,52.2705568,-9.5459419
Unknown,Unknown Address,52.2126331,-10.1622107
Unknown,Unknown Address,53.4061958,-6.2522028
Unknown,Unknown Address,52.1881243,-9.8774254
Unknown,Unknown Address,52.2359827,-9.7440197
Unknown,Unknown Address,53.2848537,-6.3258461
Unknown,Unknown Address,52.4175815,-7.3663099
Unknown,Unknown Address,54.5773405,-5.890224
Unknown,Unknown Address,54.163413,-7.4556151
Unknown,Unknown Address,54.1612706,-7.460708
Unknown,Unknown Address,52.1233588,-8.8434724
Unknown,Unknown Address,53.3515847,-6.2733221
Unknown,Unknown Address,53.3516327,-6.2733234
Unknown,Unknown Address,54.2590682,-5.8155643
Harbour Hotel Car Park,Unknown Address,53.2704291,-9.0480827
Unknown,Unknown Address,54.9613454,-7.2458256
Unknown,Unknown Address,54.9618388,-7.2458148
Unknown,Unknown Address,54.9237287,-6.983173
Unknown,Unknown Address,54.924216,-6.9875825
Unknown,Unknown Address,54.6603679,-5.9295781
Unknown,Unknown Address,54.6606599,-5.9306163
Unknown,Unknown Address,53.6678679,-6.6925219
Unknown,Unknown Address,53.3410621,-9.8823408
Unknown,Unknown Address,53.5939734,-9.7903683
Unknown,Unknown Address,54.4865528,-6.8884938
Unknown,Unknown Address,53.8265014,-9.3221607
Unknown,Unknown Address,53.8271046,-9.3198112
Unknown,Unknown Address,53.8387045,-9.2749146
Unknown,Unknown Address,53.8387235,-9.2755658
Unknown,Unknown Address,53.8599128,-9.2579514
Unknown,Unknown Address,53.8604381,-9.2582948
Unknown,Unknown Address,54.6600514,-7.2714075
Unknown,Unknown Address,54.2858202,-7.9481921
Unknown,Unknown Address,52.7777125,-6.4876615
Unknown,Unknown Address,52.9326597,-9.4233331
Unknown,Unknown Address,54.7412908,-6.4256215
Unknown,Unknown Address,55.206183,-6.5237434
Unknown,Unknown Address,54.8778539,-6.5790526
Unknown,Unknown Address,54.8660522,-6.5241801
Unknown,Unknown Address,54.8725238,-6.5002768
Unknown,Unknown Address,53.6040442,-10.0093433
Unknown,Unknown Address,53.2871291,-9.0752146
Unknown,Unknown Address,54.2442075,-5.860124
Unknown,Unknown Address,55.0341407,-7.169346
Unknown,Unknown Address,53.2819931,-7.489656
Unknown,Unknown Address,54.7902044,-6.9401538
Unknown,Unknown Address,52.3834662,-6.3659534
Unknown,Unknown Address,52.381097,-6.3682828
Unknown,Unknown Address,52.2672105,-9.6985592
New Village Forest Recreation Area,Unknown Address,53.4392656,-9.3399912
Unknown,Unknown Address,52.1785092,-7.4664561
Unknown,Unknown Address,52.445881,-7.469682
Unknown,Unknown Address,52.4464658,-7.4694381
Unknown,Unknown Address,54.5105582,-6.0475865
Unknown,Unknown Address,55.1806676,-6.9600637
Unknown,Unknown Address,52.4936447,-8.0237998
Unknown,Unknown Address,52.661078,-7.9524356
Unknown,Unknown Address,52.6796485,-8.162083
Unknown,Unknown Address,53.3361807,-6.510979
Unknown,Unknown Address,52.7921899,-8.2382765
Unknown,Unknown Address,52.7919254,-8.238107
Unknown,Unknown Address,54.4989971,-6.4476006
Unknown,Unknown Address,54.2329783,-5.866369
Unknown,Unknown Address,52.7361259,-7.0240763
Unknown,Unknown Address,54.2574994,-5.8503279
Unknown,Unknown Address,54.2578502,-5.8499636
Unknown,Unknown Address,54.2580057,-5.8497394
Unknown,Unknown Address,54.2580993,-5.8500522
Unknown,Unknown Address,54.2587205,-5.8513282
Unknown,Unknown Address,53.3257838,-6.3514418
Unknown,Unknown Address,52.2162542,-6.7223767
Unknown,Unknown Address,53.3650536,-6.2720704
Unknown,Unknown Address,53.0289633,-7.3011828
Unknown,Unknown Address,53.4132043,-6.3744018
Unknown,Unknown Address,53.4185412,-6.4400025
Unknown,Unknown Address,52.8070436,-7.2022341
Unknown,Unknown Address,54.2566722,-5.9459712
Unknown,Unknown Address,52.6712738,-8.5515181
Unknown,Unknown Address,53.1283531,-9.7024282
Unknown,Unknown Address,52.42807,-8.690819
Unknown,Unknown Address,52.4283525,-8.6907569
Unknown,Unknown Address,52.3606733,-8.6818368
Unknown,Unknown Address,52.3471971,-8.675004
Unknown,Unknown Address,52.3465646,-8.6756778
Unknown,Unknown Address,52.3092518,-8.6693877
Unknown,Unknown Address,52.1460972,-8.6565491
Unknown,Unknown Address,52.5433923,-8.8545548
Unknown,Unknown Address,52.5435168,-8.8540574
Unknown,Unknown Address,52.561948,-8.7934057
Unknown,Unknown Address,52.562228,-8.7932906
Unknown,Unknown Address,52.4796333,-9.0124196
Unknown,Unknown Address,52.4799287,-9.0121745
Unknown,Unknown Address,52.4483084,-9.0536117
Unknown,Unknown Address,52.4489839,-9.0556874
Unknown,Unknown Address,52.4488112,-9.0552075
Unknown,Unknown Address,52.3863779,-9.294149
Unknown,Unknown Address,52.386708,-9.2940151
Unknown,Unknown Address,53.2694152,-9.1091609
Unknown,Unknown Address,54.9652984,-7.7129026
Unknown,Unknown Address,52.3099671,-6.4575994
Unknown,Unknown Address,52.3296121,-6.4772074
Mullaghgarve Mass Rock Car Park,Unknown Address,54.081179,-7.9508783
Unknown,Unknown Address,53.293879,-6.3695746
Unknown,Unknown Address,52.2523261,-6.3338892
Unknown,Unknown Address,53.2766956,-9.0483381
Unknown,Unknown Address,53.2760201,-9.0495677
Unknown,Unknown Address,53.417319,-6.2911487
Unknown,Unknown Address,52.6561657,-7.2577332
Unknown,Unknown Address,52.0103018,-9.5015697
Chemin proche R353,Unknown Address,53.0610162,-8.6645554
Unknown,Unknown Address,53.5169837,-9.7374926
Unknown,Unknown Address,53.6074713,-9.6900747
Unknown,Unknown Address,53.713891,-6.351683
Unknown,Unknown Address,54.2636141,-8.3501619
Unknown,Unknown Address,53.2541112,-6.1259811
Unknown,Unknown Address,55.1728479,-7.9023971
Unknown,Unknown Address,55.0194621,-8.1482643
Unknown,Unknown Address,55.0231309,-8.1504378
Unknown,Unknown Address,55.1212569,-7.6853466
Unknown,Unknown Address,55.1851595,-7.6022328
Deerpark carpark A,Unknown Address,52.5237782,-6.9670996
Altachullion,Unknown Address,54.1649375,-7.7907669
Lough Arrow,Unknown Address,54.0617881,-8.3012792
Unknown,Unknown Address,53.0023752,-7.475867
Unknown,Unknown Address,53.088475,-7.6067875
Unknown,Unknown Address,52.3392536,-6.5641685
Unknown,Unknown Address,54.5017432,-8.1991301
